[{"OBJECT_NAME":"STARLINK-31630","OBJECT_ID":"2024-050T","EPOCH":"2026-03-09T13:39:04.940352","MEAN_MOTION":15.30200807,"ECCENTRICITY":0.0001409,"INCLINATION":53.16,"RA_OF_ASC_NODE":168.5079,"ARG_OF_PERICENTER":92.3163,"MEAN_ANOMALY":267.7999,"EPHEMERIS_TYPE":0,"CLASSIFICATION_TYPE":"U","NORAD_CAT_ID":59271,"ELEMENT_SET_NO":999,"REV_AT_EPOCH":11071,"BSTAR":-5.7526e-5,"MEAN_MOTION_DOT":-2.063e-5,"MEAN_MOTION_DDOT":0},{"OBJECT_NAME":"STARLINK-33638","OBJECT_ID":"2025-069D","EPOCH":"2026-03-09T10:27:55.697184","MEAN_MOTION":15.30183365,"ECCENTRICITY":0.0001288,"INCLINATION":53.1577,"RA_OF_ASC_NODE":143.8151,"ARG_OF_PERICENTER":102.7718,"MEAN_ANOMALY":257.3427,"EPHEMERIS_TYPE":0,"CLASSIFICATION_TYPE":"U","NORAD_CAT_ID":63436,"ELEMENT_SET_NO":999,"REV_AT_EPOCH":5336,"BSTAR":0.00077282913,"MEAN_MOTION_DOT":0.00022588,"MEAN_MOTION_DDOT":0}]
